[{"OBJECT_NAME":"STARLINK-5708","OBJECT_ID":"2023-015X","EPOCH":"2026-03-09T14:28:56.059104","MEAN_MOTION":15.02528755,"ECCENTRICITY":0.0001159,"INCLINATION":43.0054,"RA_OF_ASC_NODE":326.2339,"ARG_OF_PERICENTER":261.8958,"MEAN_ANOMALY":98.1752,"EPHEMERIS_TYPE":0,"CLASSIFICATION_TYPE":"U","NORAD_CAT_ID":55470,"ELEMENT_SET_NO":999,"REV_AT_EPOCH":17074,"BSTAR":0.00020067,"MEAN_MOTION_DOT":2.508e-5,"MEAN_MOTION_DDOT":0},{"OBJECT_NAME":"BREEZE-KM R\/B","OBJECT_ID":"2016-011B","EPOCH":"2026-03-09T13:46:31.765728","MEAN_MOTION":15.28220455,"ECCENTRICITY":0.0143188,"INCLINATION":98.6722,"RA_OF_ASC_NODE":284.67,"ARG_OF_PERICENTER":63.2473,"MEAN_ANOMALY":298.3333,"EPHEMERIS_TYPE":0,"CLASSIFICATION_TYPE":"U","NORAD_CAT_ID":41336,"ELEMENT_SET_NO":999,"REV_AT_EPOCH":55224,"BSTAR":0.00023628,"MEAN_MOTION_DOT":8.734e-5,"MEAN_MOTION_DDOT":0}]
